GALAXY 25 (G-25)        
1 24812C 97026A   22255.00000000  .00000087  00000-0  00000-0 0  2557
2 24812   3.9000  82.7886 0003182  96.0426 238.2804  1.00272034    18
GALAXY 25 (G-25)        
1 24812C 97026A   22258.00000000  .00000087  00000-0  00000-0 0  2583
2 24812   3.9096  82.7312 0003153 101.5161 235.8234  1.00271727    11
GALAXY 25 (G-25)    [PM]
1 24812C 97026A   22258.59343750  .00000087  00000-0  00000-0 0  2589
2 24812   3.9114  82.7232 0001876 111.4768  80.0876  1.00272778    15
INTELSAT 5 (IS-5)   [PM]
1 24916C 97046A   22252.00000000  .00000035  00000-0  00000-0 0  2521
2 24916   7.4011  60.4842 0003140  89.2853   4.4302  1.00268194    19
INTELSAT 5 (IS-5)       
1 24916C 97046A   22255.00000000  .00000035  00000-0  00000-0 0  2557
2 24916   7.4088  60.4411 0002851  99.4922 357.2235  1.00269215    12
INTELSAT 5 (IS-5)       
1 24916C 97046A   22258.00000000  .00000035  00000-0  00000-0 0  2583
2 24916   7.4173  60.4187 0002651 107.0074 352.6975  1.00269962    18
GALAXY 11 (G-11)        
1 26038C 99071A   22255.00000000 -.00000072  00000-0  00000-0 0  2556
2 26038   3.2234  86.5672 0000837 223.2570 308.0588  1.00270764    18
GALAXY 11 (G-11)        
1 26038C 99071A   22258.00000000 -.00000072  00000-0  00000-0 0  2582
2 26038   3.2333  86.4974 0001122 216.9473 317.3918  1.00271397    14
INTELSAT 9 (IS-9)       
1 26451C 00043A   22255.00000000 -.00000191  00000-0  00000-0 0  2558
2 26451   7.3938  60.6011 0003880 156.6822  83.6965  1.00274773    12
INTELSAT 9 (IS-9)   [PM]
1 26451C 00043A   22255.73671296 -.00000191  00000-0  00000-0 0  2559
2 26451   7.3958  60.5979 0000952 154.9493 351.3926  1.00271220    14
INTELSAT 9 (IS-9)       
1 26451C 00043A   22258.00000000 -.00000191  00000-0  00000-0 0  2584
2 26451   7.4022  60.5809 0004189 159.8426  83.5285  1.00273867    16
INTELSAT 1R (IS-1R)     
1 26608C 00072A   22255.00000000 -.00000047  00000-0  00000-0 0  2554
2 26608   4.6632  79.8212 0000639  30.6917  37.5751  1.00271167    12
INTELSAT 1R (IS-1R)     
1 26608C 00072A   22258.00000000 -.00000047  00000-0  00000-0 0  2580
2 26608   4.6715  79.7814 0000368  36.6062  34.6594  1.00271458    13
INTELSAT 10 (IS-10)     
1 26766C 01019A   22255.00000000  .00000127  00000-0  00000-0 0  2559
2 26766   5.7784  72.6038 0002258  66.6113  29.5839  1.00270366    18
INTELSAT 10 (IS-10) [PM]
1 26766C 01019A   22257.97567130  .00000127  00000-0  00000-0 0  2571
2 26766   5.7876  72.5667 0002302  75.1629  15.2571  1.00269051    18
INTELSAT 10 (IS-10)     
1 26766C 01019A   22258.00000000  .00000127  00000-0  00000-0 0  2585
2 26766   5.7877  72.5688 0002210  74.8101  24.3924  1.00268326    18
INTELSAT 901            
1 26824C 01024A   22255.00000000 -.00003737  00000-0  00000-0 0  2551
2 26824   0.0217 237.6879 0001037 311.2063 134.6003  1.00271111    15
INTELSAT 901            
1 26824C 01024A   22258.00000000 -.00003247  00000-0  00000-0 0  2583
2 26824   0.0047 207.9700 0001000 357.2581 121.1915  1.00271398    14
INTELSAT 902            
1 26900C 01039A   22255.00000000 -.00000192  00000-0  00000-0 0  2554
2 26900   2.6176  88.0230 0002221  91.2125 121.6465  1.00273425    19
INTELSAT 902            
1 26900C 01039A   22258.00000000 -.00000192  00000-0  00000-0 0  2580
2 26900   2.6269  87.9558 0002213 101.2385 114.6573  1.00273161    13
INTELSAT 902        [PM]
1 26900C 01039A   22262.93590278 -.00000192  00000-0  00000-0 0  2623
2 26900   2.6399  87.9689 0002221 109.5617  88.1125  1.00273328    13
INTELSAT 904            
1 27380C 02007A   22255.00000000 -.00000123  00000-0  00000-0 0  2557
2 27380   3.4481  85.0033 0002994 105.4761 131.0063  1.00272665    13
INTELSAT 904            
1 27380C 02007A   22258.00000000 -.00000123  00000-0  00000-0 0  2583
2 27380   3.4575  84.9416 0003069 113.3606 126.1449  1.00272669    17
INTELSAT 904        [PM]
1 27380C 02007A   22262.32547454 -.00000123  00000-0  00000-0 0  2627
2 27380   3.4557 202.0681 0003097 101.4834 142.3473  1.00270637    16
INTELSAT 905        [PM]
1 27438C 02027A   22252.30728009 -.00000094  00000-0  00000-0 0  2523
2 27438   3.2536 196.6202 0002799  79.6922 158.1277  1.00271638    13
INTELSAT 905            
1 27438C 02027A   22255.00000000 -.00000094  00000-0  00000-0 0  2550
2 27438   3.2704  85.7429 0002437  93.4582 147.2794  1.00272825    16
INTELSAT 905            
1 27438C 02027A   22258.00000000 -.00000094  00000-0  00000-0 0  2586
2 27438   3.2797  85.6800 0002425 103.3364 140.4264  1.00272801    17
GALAXY 3C (G-3C)        
1 27445C 02030A   22255.00000000 -.00000062  00000-0  00000-0 0  2557
2 27445   0.1913  87.2874 0000829 177.6731 351.1906  1.00270007    18
GALAXY 3C (G-3C)        
1 27445C 02030A   22258.00000000 -.00000062  00000-0  00000-0 0  2583
2 27445   0.2007  86.8788 0000977 185.1794 347.0404  1.00270707    13
INTELSAT 906            
1 27513C 02041A   22255.00000000  .00000105  00000-0  00000-0 0  2552
2 27513   2.2859  89.4998 0003264  93.2837 232.3580  1.00273012    10
INTELSAT 906        [PM]
1 27513C 02041A   22255.96925926  .00000105  00000-0  00000-0 0  2550
2 27513   2.2889  89.4649 0003040  94.6836 220.8874  1.00270219    16
INTELSAT 906            
1 27513C 02041A   22258.00000000  .00000105  00000-0  00000-0 0  2588
2 27513   2.2954  89.4117 0003067  97.7062 230.9755  1.00271098    19
GALAXY 12 (G-12)        
1 27715C 03013B   22255.00000000  .00000149  00000-0  00000-0 0  2554
2 27715   3.4811  84.6515 0001571  91.7292  45.5979  1.00271782    12
GALAXY 12 (G-12)        
1 27715C 03013B   22258.00000000  .00000149  00000-0  00000-0 0  2580
2 27715   3.4906  84.5851 0001468  98.6100  41.7445  1.00271334    17
GALAXY 12 (G-12)    [PM]
1 27715C 03013B   22263.59274306  .00000149  00000-0  00000-0 0  2638
2 27715   3.5041  84.5839 0002428 106.7662 252.5092  1.00271285    10
GALAXY 23 (G-23)        
1 27854C 03034A   22255.00000000  .00000090  00000-0  00000-0 0  2556
2 27854   0.0356 248.1166 0003101 290.3261  51.5347  1.00271550    15
GALAXY 23 (G-23)        
1 27854C 03034A   22258.00000000  .00000103  00000-0  00000-0 0  2587
2 27854   0.0225 238.4754 0003032 306.3501  48.1155  1.00272502    10
GALAXY 23 (G-23)    [PM]
1 27854C 03034A   22259.58261574  .00000103  00000-0  00000-0 0  2597
2 27854   0.0166 226.6691 0003049 320.1037 257.4766  1.00271648    12
GALAXY 13           [PM]
1 27954C 03044A   22241.65570602 -.00002675  00000-0  00000-0 0  2411
2 27954   0.0000 168.9384 0000929  21.6621 256.2962  1.00268853    12
GALAXY 13               
1 27954C 03044A   22255.00000000  .00000138  00000-0  00000-0 0  2551
2 27954   0.0253 251.0965 0000406  62.7746 270.1138  1.00271719    10
GALAXY 13               
1 27954C 03044A   22258.00000000  .00000139  00000-0  00000-0 0  2588
2 27954   0.0096 224.5914 0001429 354.0055   8.3573  1.00247424    10
INTELSAT 10-02          
1 28358C 04022A   22255.00000000  .00000034  00000-0  00000-0 0  2552
2 28358   0.0357 258.8043 0001096 304.6661 146.5191  1.00271005    19
INTELSAT 10-02          
1 28358C 04022A   22258.00000000 -.00003776  00000-0  00000-0 0  2585
2 28358   0.0326 268.2535 0001025 305.7501 138.9501  1.00271290    19
GALAXY 28 (G-28)        
1 28702C 05022A   22255.00000000 -.00003653  00000-0  00000-0 0  2557
2 28702   0.0000 217.7248 0002059 320.6275  83.6288  1.00270943    15
GALAXY 28 (G-28)        
1 28702C 05022A   22258.00000000 -.00000096  00000-0  00000-0 0  2581
2 28702   0.0224 292.4955 0001788 256.9890  75.4582  1.00272673    18
GALAXY 28 (G-28)    [PM]
1 28702C 05022A   22260.68193287 -.00000127  00000-0  00000-0 0  2606
2 28702   0.0201  43.8883 0001735  41.5889  67.6122  1.00272834    11
GALAXY 14 (G-14)    [PM]
1 28790C 05030A   22254.77777778  .00000246  00000-0  00000-0 0  2542
2 28790   1.4743  91.3049 0001974  77.3368 135.0199  1.00270098    14
GALAXY 14 (G-14)        
1 28790C 05030A   22255.00000000  .00000246  00000-0  00000-0 0  2557
2 28790   1.4750  91.3020 0002072  82.4099 210.1704  1.00270119    10
GALAXY 14 (G-14)        
1 28790C 05030A   22258.00000000  .00000246  00000-0  00000-0 0  2583
2 28790   1.4842  91.1817 0001968  90.0806 205.5711  1.00272330    11
GALAXY 15 (G-15)    [PM]
1 28884C 05041A   22240.61458333 -.00003330  00000-0  00000-0 0  2402
2 28884   0.0000 167.0437 0001780   8.1837 250.0294  1.00277576    11
GALAXY 15 (G-15)        
1 28884C 05041A   22255.00000000  .00000166  00000-0  00000-0 0  2554
2 28884   0.0327  90.1702 0002292 106.6456  21.7982  1.00282200    11
GALAXY 15 (G-15)        
1 28884C 05041A   22258.00000000  .00000165  00000-0  00000-0 0  2589
2 28884   0.0425  82.2875 0002330 122.2423  17.1661  1.00284091    17
GALAXY 16 (G-16)        
1 29236C 06023A   22255.00000000 -.00000037  00000-0  00000-0 0  2555
2 29236   0.0452 262.5511 0002997 283.4896  65.9453  1.00271287    15
GALAXY 16 (G-16)        
1 29236C 06023A   22258.00000000 -.00000053  00000-0  00000-0 0  2589
2 29236   0.0336 261.0873 0002645 274.4896  79.3717  1.00271618    11
GALAXY 16 (G-16)    [PM]
1 29236C 06023A   22261.54901620 -.00000039  00000-0  00000-0 0  2618
2 29236   0.0384 265.1433 0002674 281.6811 269.2695  1.00272911    12
GALAXY 17 (G-17)        
1 31307C 07016B   22255.00000000 -.00000084  00000-0  00000-0 0  2552
2 31307   0.0169 105.8106 0002741  71.6617  82.5110  1.00272007    12
GALAXY 17 (G-17)        
1 31307C 07016B   22258.00000000 -.00000069  00000-0  00000-0 0  2581
2 31307   0.0306 305.0228 0002656 238.9242  78.9939  1.00272710    10
GALAXY 17 (G-17)    [PM]
1 31307C 07016B   22264.96905093 -.00000085  00000-0  00000-0 0  2644
2 31307   0.0008 132.8524 0002691  64.6642  61.1716  1.00272254    11
INTELSAT 11 (IS-11)     
1 32253C 07044B   22255.00000000  .00000019  00000-0  00000-0 0  2551
2 32253   0.0001 142.2925 0001806  37.4612 128.2501  1.00271381    14
